[{"OBJECT_NAME":"SAUDISAT 5B","OBJECT_ID":"2018-102C","EPOCH":"2026-04-05T14:54:35.350272","MEAN_MOTION":15.27616329,"ECCENTRICITY":0.00114006,"INCLINATION":97.323,"RA_OF_ASC_NODE":161.5548,"ARG_OF_PERICENTER":41.4473,"MEAN_ANOMALY":318.7629,"EPHEMERIS_TYPE":0,"CLASSIFICATION_TYPE":"U","NORAD_CAT_ID":43833,"ELEMENT_SET_NO":999,"REV_AT_EPOCH":40471,"BSTAR":0.00025841307,"MEAN_MOTION_DOT":6.917e-5,"MEAN_MOTION_DDOT":0},{"OBJECT_NAME":"2018-102D","OBJECT_ID":"2018-102D","EPOCH":"2026-04-05T14:31:20.418816","MEAN_MOTION":15.59015269,"ECCENTRICITY":0.00035304,"INCLINATION":97.3452,"RA_OF_ASC_NODE":181.9518,"ARG_OF_PERICENTER":329.744,"MEAN_ANOMALY":30.3612,"EPHEMERIS_TYPE":0,"CLASSIFICATION_TYPE":"U","NORAD_CAT_ID":43834,"ELEMENT_SET_NO":999,"REV_AT_EPOCH":40591,"BSTAR":0.00082168677,"MEAN_MOTION_DOT":0.00064249,"MEAN_MOTION_DDOT":0},{"OBJECT_NAME":"ISAT","OBJECT_ID":"2018-111D","EPOCH":"2026-04-05T08:05:58.700544","MEAN_MOTION":15.54881726,"ECCENTRICITY":0.000588,"INCLINATION":97.5905,"RA_OF_ASC_NODE":25.6115,"ARG_OF_PERICENTER":165.2921,"MEAN_ANOMALY":194.8505,"EPHEMERIS_TYPE":0,"CLASSIFICATION_TYPE":"U","NORAD_CAT_ID":43879,"ELEMENT_SET_NO":999,"REV_AT_EPOCH":39981,"BSTAR":0.0012730516,"MEAN_MOTION_DOT":0.00085717,"MEAN_MOTION_DDOT":0},{"OBJECT_NAME":"UWE-4","OBJECT_ID":"2018-111E","EPOCH":"2026-04-05T05:39:03.048480","MEAN_MOTION":15.41908824,"ECCENTRICITY":0.0006878,"INCLINATION":97.5857,"RA_OF_ASC_NODE":20.5234,"ARG_OF_PERICENTER":210.683,"MEAN_ANOMALY":149.4015,"EPHEMERIS_TYPE":0,"CLASSIFICATION_TYPE":"U","NORAD_CAT_ID":43880,"ELEMENT_SET_NO":999,"REV_AT_EPOCH":39952,"BSTAR":0.00090054,"MEAN_MOTION_DOT":0.0003835,"MEAN_MOTION_DDOT":0},{"OBJECT_NAME":"D-STAR ONE (SPARROW)","OBJECT_ID":"2018-111F","EPOCH":"2026-04-05T12:57:55.011456","MEAN_MOTION":15.59573105,"ECCENTRICITY":0.00029827,"INCLINATION":97.6123,"RA_OF_ASC_NODE":30.4665,"ARG_OF_PERICENTER":161.1586,"MEAN_ANOMALY":198.9781,"EPHEMERIS_TYPE":0,"CLASSIFICATION_TYPE":"U","NORAD_CAT_ID":43881,"ELEMENT_SET_NO":999,"REV_AT_EPOCH":40000,"BSTAR":0.0012780282,"MEAN_MOTION_DOT":0.00102597,"MEAN_MOTION_DDOT":0},{"OBJECT_NAME":"JILIN-1 09","OBJECT_ID":"2019-005B","EPOCH":"2026-04-05T13:50:20.026752","MEAN_MOTION":15.19868422,"ECCENTRICITY":0.00021786,"INCLINATION":97.4701,"RA_OF_ASC_NODE":191.2128,"ARG_OF_PERICENTER":26.7927,"MEAN_ANOMALY":333.342,"EPHEMERIS_TYPE":0,"CLASSIFICATION_TYPE":"U","NORAD_CAT_ID":43943,"ELEMENT_SET_NO":999,"REV_AT_EPOCH":39811,"BSTAR":0.00031125587,"MEAN_MOTION_DOT":6.611e-5,"MEAN_MOTION_DDOT":0},{"OBJECT_NAME":"JILIN-1 10","OBJECT_ID":"2019-005E","EPOCH":"2026-04-05T13:41:09.588768","MEAN_MOTION":15.24906117,"ECCENTRICITY":0.00088166,"INCLINATION":97.4736,"RA_OF_ASC_NODE":194.4432,"ARG_OF_PERICENTER":164.8983,"MEAN_ANOMALY":195.252,"EPHEMERIS_TYPE":0,"CLASSIFICATION_TYPE":"U","NORAD_CAT_ID":43946,"ELEMENT_SET_NO":999,"REV_AT_EPOCH":39824,"BSTAR":0.00037000298,"MEAN_MOTION_DOT":9.147e-5,"MEAN_MOTION_DDOT":0},{"OBJECT_NAME":"EGYPTSAT-A (MISRSAT-A)","OBJECT_ID":"2019-008A","EPOCH":"2026-04-05T15:04:48.589824","MEAN_MOTION":14.72339433,"ECCENTRICITY":0.00013333,"INCLINATION":98.0094,"RA_OF_ASC_NODE":161.4619,"ARG_OF_PERICENTER":101.0141,"MEAN_ANOMALY":259.1216,"EPHEMERIS_TYPE":0,"CLASSIFICATION_TYPE":"U","NORAD_CAT_ID":44047,"ELEMENT_SET_NO":999,"REV_AT_EPOCH":38256,"BSTAR":0.00026872324,"MEAN_MOTION_DOT":1.651e-5,"MEAN_MOTION_DDOT":0},{"OBJECT_NAME":"EMISAT","OBJECT_ID":"2019-018A","EPOCH":"2026-04-05T13:53:21.378624","MEAN_MOTION":14.43643335,"ECCENTRICITY":0.00197869,"INCLINATION":98.4715,"RA_OF_ASC_NODE":154.7542,"ARG_OF_PERICENTER":77.5936,"MEAN_ANOMALY":282.7467,"EPHEMERIS_TYPE":0,"CLASSIFICATION_TYPE":"U","NORAD_CAT_ID":44078,"ELEMENT_SET_NO":999,"REV_AT_EPOCH":36958,"BSTAR":0.00020568779,"MEAN_MOTION_DOT":6.55e-6,"MEAN_MOTION_DDOT":0},{"OBJECT_NAME":"JILIN-1 GAOFEN 3A","OBJECT_ID":"2019-032C","EPOCH":"2026-04-05T07:23:05.692992","MEAN_MOTION":15.31057374,"ECCENTRICITY":0.00051824,"INCLINATION":44.9762,"RA_OF_ASC_NODE":37.5429,"ARG_OF_PERICENTER":253.6686,"MEAN_ANOMALY":106.3628,"EPHEMERIS_TYPE":0,"CLASSIFICATION_TYPE":"U","NORAD_CAT_ID":44312,"ELEMENT_SET_NO":999,"REV_AT_EPOCH":37666,"BSTAR":0.00060178471,"MEAN_MOTION_DOT":0.00018151,"MEAN_MOTION_DDOT":0},{"OBJECT_NAME":"WT 1A","OBJECT_ID":"2019-032F","EPOCH":"2026-04-05T14:05:27.499776","MEAN_MOTION":15.90649446,"ECCENTRICITY":0.00147147,"INCLINATION":44.9692,"RA_OF_ASC_NODE":278.77,"ARG_OF_PERICENTER":283.2387,"MEAN_ANOMALY":76.6878,"EPHEMERIS_TYPE":0,"CLASSIFICATION_TYPE":"U","NORAD_CAT_ID":44315,"ELEMENT_SET_NO":999,"REV_AT_EPOCH":37811,"BSTAR":0.0013162328,"MEAN_MOTION_DOT":0.00422924,"MEAN_MOTION_DDOT":7.6395292e-5},{"OBJECT_NAME":"WT 1B","OBJECT_ID":"2019-032G","EPOCH":"2026-04-05T11:49:54.757632","MEAN_MOTION":15.25738883,"ECCENTRICITY":0.00095896,"INCLINATION":44.9686,"RA_OF_ASC_NODE":97.2956,"ARG_OF_PERICENTER":208.6196,"MEAN_ANOMALY":151.416,"EPHEMERIS_TYPE":0,"CLASSIFICATION_TYPE":"U","NORAD_CAT_ID":44316,"ELEMENT_SET_NO":999,"REV_AT_EPOCH":37597,"BSTAR":0.00056289086,"MEAN_MOTION_DOT":0.00014382,"MEAN_MOTION_DDOT":0},{"OBJECT_NAME":"PROX-1","OBJECT_ID":"2019-036A","EPOCH":"2026-04-05T10:46:49.651392","MEAN_MOTION":14.88908224,"ECCENTRICITY":0.0005735,"INCLINATION":23.9947,"RA_OF_ASC_NODE":239.4687,"ARG_OF_PERICENTER":277.4068,"MEAN_ANOMALY":82.578,"EPHEMERIS_TYPE":0,"CLASSIFICATION_TYPE":"U","NORAD_CAT_ID":44339,"ELEMENT_SET_NO":999,"REV_AT_EPOCH":36261,"BSTAR":0.0017656,"MEAN_MOTION_DOT":0.0001728,"MEAN_MOTION_DDOT":0},{"OBJECT_NAME":"NPSAT1","OBJECT_ID":"2019-036B","EPOCH":"2026-04-05T08:28:31.788480","MEAN_MOTION":14.7390264,"ECCENTRICITY":0.00077269,"INCLINATION":24.0005,"RA_OF_ASC_NODE":331.8634,"ARG_OF_PERICENTER":108.9783,"MEAN_ANOMALY":251.1551,"EPHEMERIS_TYPE":0,"CLASSIFICATION_TYPE":"U","NORAD_CAT_ID":44340,"ELEMENT_SET_NO":999,"REV_AT_EPOCH":36173,"BSTAR":0.0012497898,"MEAN_MOTION_DOT":8.628e-5,"MEAN_MOTION_DDOT":0},{"OBJECT_NAME":"FORMOSAT 7-3","OBJECT_ID":"2019-036E","EPOCH":"2026-04-05T00:14:22.666848","MEAN_MOTION":15.09244558,"ECCENTRICITY":0.00010143,"INCLINATION":24.0002,"RA_OF_ASC_NODE":321.9725,"ARG_OF_PERICENTER":109.7837,"MEAN_ANOMALY":250.2776,"EPHEMERIS_TYPE":0,"CLASSIFICATION_TYPE":"U","NORAD_CAT_ID":44343,"ELEMENT_SET_NO":999,"REV_AT_EPOCH":37217,"BSTAR":0.00042622685,"MEAN_MOTION_DOT":7.312e-5,"MEAN_MOTION_DDOT":0},{"OBJECT_NAME":"FORMOSAT 7-1","OBJECT_ID":"2019-036L","EPOCH":"2026-04-05T13:27:36.997632","MEAN_MOTION":14.96198059,"ECCENTRICITY":0.00011407,"INCLINATION":23.9969,"RA_OF_ASC_NODE":161.901,"ARG_OF_PERICENTER":63.3701,"MEAN_ANOMALY":296.6917,"EPHEMERIS_TYPE":0,"CLASSIFICATION_TYPE":"U","NORAD_CAT_ID":44349,"ELEMENT_SET_NO":999,"REV_AT_EPOCH":37376,"BSTAR":0.00031499648,"MEAN_MOTION_DOT":3.94e-5,"MEAN_MOTION_DDOT":0},{"OBJECT_NAME":"FORMOSAT 7-4","OBJECT_ID":"2019-036M","EPOCH":"2026-04-05T13:59:39.515136","MEAN_MOTION":14.96193631,"ECCENTRICITY":0.00014784,"INCLINATION":23.9981,"RA_OF_ASC_NODE":223.8532,"ARG_OF_PERICENTER":66.2312,"MEAN_ANOMALY":293.8344,"EPHEMERIS_TYPE":0,"CLASSIFICATION_TYPE":"U","NORAD_CAT_ID":44350,"ELEMENT_SET_NO":999,"REV_AT_EPOCH":37318,"BSTAR":0.0003355325,"MEAN_MOTION_DOT":4.177e-5,"MEAN_MOTION_DDOT":0},{"OBJECT_NAME":"FORMOSAT 7-2","OBJECT_ID":"2019-036N","EPOCH":"2026-04-05T14:31:51.763008","MEAN_MOTION":14.9619514,"ECCENTRICITY":9.19e-5,"INCLINATION":23.9987,"RA_OF_ASC_NODE":278.0175,"ARG_OF_PERICENTER":71.2816,"MEAN_ANOMALY":288.7784,"EPHEMERIS_TYPE":0,"CLASSIFICATION_TYPE":"U","NORAD_CAT_ID":44351,"ELEMENT_SET_NO":999,"REV_AT_EPOCH":37270,"BSTAR":0.00030968973,"MEAN_MOTION_DOT":3.879e-5,"MEAN_MOTION_DDOT":0},{"OBJECT_NAME":"FORMOSAT 7-6","OBJECT_ID":"2019-036Q","EPOCH":"2026-04-05T09:43:55.773696","MEAN_MOTION":14.96198035,"ECCENTRICITY":8.912e-5,"INCLINATION":23.9973,"RA_OF_ASC_NODE":100.1828,"ARG_OF_PERICENTER":352.2245,"MEAN_ANOMALY":7.8241,"EPHEMERIS_TYPE":0,"CLASSIFICATION_TYPE":"U","NORAD_CAT_ID":44353,"ELEMENT_SET_NO":999,"REV_AT_EPOCH":37090,"BSTAR":0.00030990442,"MEAN_MOTION_DOT":3.881e-5,"MEAN_MOTION_DDOT":0},{"OBJECT_NAME":"FORMOSAT 7-5","OBJECT_ID":"2019-036V","EPOCH":"2026-04-05T12:23:26.534112","MEAN_MOTION":14.96198124,"ECCENTRICITY":6.545e-5,"INCLINATION":24.0001,"RA_OF_ASC_NODE":38.1847,"ARG_OF_PERICENTER":75.181,"MEAN_ANOMALY":284.8763,"EPHEMERIS_TYPE":0,"CLASSIFICATION_TYPE":"U","NORAD_CAT_ID":44358,"ELEMENT_SET_NO":999,"REV_AT_EPOCH":37145,"BSTAR":0.00032046256,"MEAN_MOTION_DOT":4.003e-5,"MEAN_MOTION_DDOT":0},{"OBJECT_NAME":"METEOR-M2 2","OBJECT_ID":"2019-038A","EPOCH":"2026-04-05T14:37:49.689696","MEAN_MOTION":14.24344781,"ECCENTRICITY":6.783e-5,"INCLINATION":98.9119,"RA_OF_ASC_NODE":81.8386,"ARG_OF_PERICENTER":164.8757,"MEAN_ANOMALY":195.2441,"EPHEMERIS_TYPE":0,"CLASSIFICATION_TYPE":"U","NORAD_CAT_ID":44387,"ELEMENT_SET_NO":999,"REV_AT_EPOCH":35096,"BSTAR":2.9885364e-5,"MEAN_MOTION_DOT":2.3e-7,"MEAN_MOTION_DDOT":0},{"OBJECT_NAME":"COSMOS 2535","OBJECT_ID":"2019-039A","EPOCH":"2026-04-05T13:41:58.432416","MEAN_MOTION":14.91816043,"ECCENTRICITY":0.00100867,"INCLINATION":97.5845,"RA_OF_ASC_NODE":126.4949,"ARG_OF_PERICENTER":94.7485,"MEAN_ANOMALY":265.4886,"EPHEMERIS_TYPE":0,"CLASSIFICATION_TYPE":"U","NORAD_CAT_ID":44421,"ELEMENT_SET_NO":999,"REV_AT_EPOCH":36581,"BSTAR":0.00020237414,"MEAN_MOTION_DOT":1.99e-5,"MEAN_MOTION_DDOT":0},{"OBJECT_NAME":"GLOBAL-4","OBJECT_ID":"2019-054E","EPOCH":"2026-04-05T13:49:52.961088","MEAN_MOTION":15.58086607,"ECCENTRICITY":0.00059099,"INCLINATION":45.0074,"RA_OF_ASC_NODE":293.2849,"ARG_OF_PERICENTER":220.0798,"MEAN_ANOMALY":139.9661,"EPHEMERIS_TYPE":0,"CLASSIFICATION_TYPE":"U","NORAD_CAT_ID":44499,"ELEMENT_SET_NO":999,"REV_AT_EPOCH":36901,"BSTAR":0.00065252207,"MEAN_MOTION_DOT":0.0005024,"MEAN_MOTION_DDOT":0}]
